NORAD_CAT_ID,OBJECT_NAME,OBJECT_TYPE,EPOCH,MEAN_MOTION,ECCENTRICITY,INCLINATION,RA_OF_ASC_NODE,ARG_OF_PERICENTER,MEAN_ANOMALY,BSTAR,MEAN_MOTION_DOT,MEAN_MOTION_DDOT,TLE_LINE0,TLE_LINE1,TLE_LINE2,SEMIMAJOR_AXIS,PERIOD,APOGEE,PERIGEE,DECAYED
56770.0,STARLINK-6342,PAYLOAD,2023-12-01 21:54:14,14.98349254,0.0001762,70.0016,294.1267,250.1079,109.989,0.0002552,2.955e-05,0.0,0 STARLINK-6342,1 56770U 23078D   23335.91267242  .00002955  00000-0  25520-3 0  9992,2 56770  70.0016 294.1267 0001762 250.1079 109.9890 14.98349254 28041,6950.133,96.106,573.223,570.774,0.0
56770.0,STARLINK-6342,PAYLOAD,2023-12-02 01:06:30,14.98350286,0.0002307,70.0004,293.7886,249.296,110.7952,0.00021664,2.494e-05,0.0,0 STARLINK-6342,1 56770U 23078D   23336.04619050  .00002494  00000-0  21664-3 0  9998,2 56770  70.0004 293.7886 0002307 249.2960 110.7952 14.98350286 28321,6950.13,96.106,573.599,570.392,0.0
56770.0,STARLINK-6342,PAYLOAD,2023-12-02 07:31:01,14.98356506,0.0002394,70.0,293.1139,262.7589,97.3298,0.00050936,5.994e-05,0.0,0 STARLINK-6342,1 56770U 23078D   23336.31321600  .00005994  00000-0  50936-3 0  9991,2 56770  70.0000 293.1139 0002394 262.7589  97.3298 14.98356506 28363,6950.111,96.105,573.64,570.312,0.0
56770.0,STARLINK-6342,PAYLOAD,2023-12-02 21:56:18,14.98311299,0.0002687,69.9999,291.6002,267.6378,92.4474,-7.1171e-05,-9.42e-06,0.0,0 STARLINK-6342,1 56770U 23078D   23336.91409849 -.00000942  00000-0 -71171-4 0  9994,2 56770  69.9999 291.6002 0002687 267.6378  92.4474 14.98311299 28197,6950.251,96.108,573.983,570.248,0.0
56770.0,STARLINK-6342,PAYLOAD,2023-12-03 01:08:35,14.9829831,0.0002575,69.9996,291.2627,262.7602,97.3265,-0.00020933,-2.588e-05,0.0,0 STARLINK-6342,1 56770U 23078D   23337.04763081 -.00002588  00000-0 -20933-3 0  9997,2 56770  69.9996 291.2627 0002575 262.7602  97.3265 14.98298310 28476,6950.291,96.109,573.946,570.366,0.0
56770.0,STARLINK-6342,PAYLOAD,2023-12-03 07:33:07,14.98299146,0.0002488,70.0001,290.5903,258.6696,101.4184,-0.00019806,-2.453e-05,0.0,0 STARLINK-6342,1 56770U 23078D   23337.31467491 -.00002453  00000-0 -19806-3 0  9991,2 56770  70.0001 290.5903 0002488 258.6696 101.4184 14.98299146 28256,6950.288,96.109,573.883,570.424,0.0
56770.0,STARLINK-6342,PAYLOAD,2023-12-03 20:22:11,14.98323293,0.0002756,69.9982,289.2409,261.1501,98.9346,-0.00034385,-4.193e-05,0.0,0 STARLINK-6342,1 56770U 23078D   23337.84874919 -.00004193  00000-0 -34385-3 0  9998,2 56770  69.9982 289.2409 0002756 261.1501  98.9346 14.98323293 28597,6950.214,96.107,573.994,570.163,0.0
56770.0,STARLINK-6342,PAYLOAD,2023-12-04 07:35:07,14.98331879,0.0002771,69.9989,288.064,263.6413,96.4431,-0.0002472,-3.041e-05,0.0,0 STARLINK-6342,1 56770U 23078D   23338.31606261 -.00003041  00000-0 -24720-3 0  9997,2 56770  69.9989 288.0640 0002771 263.6413  96.4431 14.98331879 28669,6950.187,96.107,573.978,570.126,0.0
56770.0,STARLINK-6342,PAYLOAD,2023-12-05 06:01:00,14.98323506,0.0002785,69.9989,285.7075,255.3648,104.7202,0.0004045,4.736e-05,0.0,0 STARLINK-6342,1 56770U 23078D   23339.25069562  .00004736  00000-0  40450-3 0  9996,2 56770  69.9989 285.7075 0002785 255.3648 104.7202 14.98323506 28801,6950.213,96.107,574.014,570.142,0.0
56770.0,STARLINK-6342,PAYLOAD,2023-12-05 20:26:12,14.98337363,0.0002406,70.0001,284.1913,261.9877,98.1009,0.00019408,2.224e-05,0.0,0 STARLINK-6342,1 56770U 23078D   23339.85153547  .00002224  00000-0  19408-3 0  9998,2 56770  70.0001 284.1913 0002406 261.9877  98.1009 14.98337363 28638,6950.17,96.107,573.707,570.363,0.0
56770.0,STARLINK-6342,PAYLOAD,2023-12-06 06:03:00,14.98336475,0.0002552,69.9995,283.1828,261.1425,98.9445,0.00021876,2.519e-05,0.0,0 STARLINK-6342,1 56770U 23078D   23340.25209334  .00002519  00000-0  21876-3 0  9999,2 56770  69.9995 283.1828 0002552 261.1425  98.9445 14.98336475 28954,6950.173,96.107,573.812,570.264,0.0
56770.0,STARLINK-6342,PAYLOAD,2023-12-06 22:04:21,14.98334417,0.0002227,70.0009,281.5034,237.1895,122.905,-4.4841e-05,-6.28e-06,0.0,0 STARLINK-6342,1 56770U 23078D   23340.91969842 -.00000628  00000-0 -44841-4 0  9998,2 56770  70.0009 281.5034 0002227 237.1895 122.9050 14.98334417 28793,6950.179,96.107,573.592,570.496,0.0
56770.0,STARLINK-6342,PAYLOAD,2023-12-07 02:52:46,14.98329111,0.0002162,70.0003,280.9949,249.8253,110.2674,-0.00013507,-1.704e-05,0.0,0 STARLINK-6342,1 56770U 23078D   23341.11998356 -.00001704  00000-0 -13507-3 0  9993,2 56770  70.0003 280.9949 0002162 249.8253 110.2674 14.98329111 29081,6950.196,96.107,573.563,570.558,0.0
56770.0,STARLINK-6342,PAYLOAD,2023-12-07 06:05:02,14.98325973,0.0002534,69.9993,280.6567,268.1452,91.9417,3.5289e-05,3.28e-06,0.0,0 STARLINK-6342,1 56770U 23078D   23341.25350175  .00000328  00000-0  35289-4 0  9990,2 56770  69.9993 280.6567 0002534 268.1452  91.9417 14.98325973 28842,6950.205,96.107,573.832,570.309,0.0
56770.0,STARLINK-6342,PAYLOAD,2023-12-07 18:54:06,14.98333197,0.0002443,69.999,279.3102,262.1525,97.9356,-3.7991e-05,-5.46e-06,0.0,0 STARLINK-6342,1 56770U 23078D   23341.78757632 -.00000546  00000-0 -37991-4 0  9993,2 56770  69.9990 279.3102 0002443 262.1525  97.9356 14.98333197 29186,6950.183,96.107,573.746,570.35,0.0
56770.0,STARLINK-6342,PAYLOAD,2023-12-08 02:54:47,14.98324546,0.0001467,70.0018,278.469,246.7583,113.3422,-5.9214e-05,-7.99e-06,0.0,0 STARLINK-6342,1 56770U 23078D   23342.12138249 -.00000799  00000-0 -59214-4 0  9991,2 56770  70.0018 278.4690 0001467 246.7583 113.3422 14.98324546 29230,6950.21,96.107,573.094,571.055,0.0
56770.0,STARLINK-6342,PAYLOAD,2023-12-08 06:07:03,14.98329289,0.0001576,70.0011,278.1315,264.675,95.423,-1.3107e-05,-2.49e-06,0.0,0 STARLINK-6342,1 56770U 23078D   23342.25489875 -.00000249  00000-0 -13107-4 0  9990,2 56770  70.0011 278.1315 0001576 264.6750  95.4230 14.98329289 28998,6950.195,96.107,573.155,570.965,0.0
56770.0,STARLINK-6342,PAYLOAD,2023-12-08 18:56:07,14.98327299,0.0002444,70.0022,276.7867,276.0754,84.0126,0.00017003,1.936e-05,0.0,0 STARLINK-6342,1 56770U 23078D   23342.78897080  .00001936  00000-0  17003-3 0  9999,2 56770  70.0022 276.7867 0002444 276.0754  84.0126 14.98327299 29338,6950.201,96.107,573.765,570.368,0.0
56770.0,STARLINK-6342,PAYLOAD,2023-12-09 06:09:03,14.98328072,0.0001914,70.002,275.6076,290.1572,69.9381,0.00015592,1.768e-05,0.0,0 STARLINK-6342,1 56770U 23078D   23343.25629252  .00001768  00000-0  15592-3 0  9990,2 56770  70.0020 275.6076 0001914 290.1572  69.9381 14.98328072 29146,6950.199,96.107,573.394,570.734,0.0
56770.0,STARLINK-6342,PAYLOAD,2023-12-10 22:12:23,14.98327748,0.0002208,69.9991,271.3985,245.4683,114.6246,-0.00022785,-2.81e-05,0.0,0 STARLINK-6342,1 56770U 23078D   23344.92526845 -.00002810  00000-0 -22785-3 0  9992,2 56770  69.9991 271.3985 0002208 245.4683 114.6246 14.98327748 29399,6950.2,96.107,573.599,570.53,0.0
56770.0,STARLINK-6342,PAYLOAD,2023-12-11 04:36:55,14.98329382,0.0002873,69.9981,270.7253,266.3917,93.6913,-0.00021042,-2.603e-05,0.0,0 STARLINK-6342,1 56770U 23078D   23345.19230825 -.00002603  00000-0 -21042-3 0  9997,2 56770  69.9981 270.7253 0002873 266.3917  93.6913 14.98329382 29695,6950.195,96.107,574.057,570.063,0.0
56770.0,STARLINK-6342,PAYLOAD,2023-12-11 22:14:24,14.98306703,0.0002466,69.9991,268.8754,263.6527,96.4351,2.3439e-05,1.87e-06,0.0,0 STARLINK-6342,1 56770U 23078D   23345.92666755  .00000187  00000-0  23439-4 0  9999,2 56770  69.9991 268.8754 0002466 263.6527  96.4351 14.98306703 29548,6950.265,96.108,573.844,570.416,0.0
56770.0,STARLINK-6342,PAYLOAD,2023-12-12 04:38:56,14.98307625,0.0002374,69.9994,268.2026,259.5829,100.5063,4.0826e-05,3.94e-06,0.0,0 STARLINK-6342,1 56770U 23078D   23346.19371036  .00000394  00000-0  40826-4 0  9993,2 56770  69.9994 268.2026 0002374 259.5829 100.5063 14.98307625 29848,6950.262,96.108,573.777,570.477,0.0
56770.0,STARLINK-6342,PAYLOAD,2023-12-12 22:16:26,14.98306566,0.0002363,69.9994,266.3512,259.3767,100.7125,2.2155e-05,1.71e-06,0.0,0 STARLINK-6342,1 56770U 23078D   23346.92808258  .00000171  00000-0  22155-4 0  9993,2 56770  69.9994 266.3512 0002363 259.3767 100.7125 14.98306566 29691,6950.265,96.109,573.773,570.488,0.0
56770.0,STARLINK-6342,PAYLOAD,2023-12-13 04:40:58,14.98307091,0.0002452,69.9994,265.6785,264.4881,95.5998,3.4952e-05,3.24e-06,0.0,0 STARLINK-6342,1 56770U 23078D   23347.19512592  .00000324  00000-0  34952-4 0  9994,2 56770  69.9994 265.6785 0002452 264.4881  95.5998 14.98307091 29994,6950.264,96.108,573.833,570.425,0.0
56770.0,STARLINK-6342,PAYLOAD,2023-12-13 19:06:11,14.98314799,0.0002173,70.0011,264.1658,260.3918,99.6995,0.00012437,1.391e-05,0.0,0 STARLINK-6342,1 56770U 23078D   23347.79596571  .00001391  00000-0  12437-3 0  9997,2 56770  70.0011 264.1658 0002173 260.3918  99.6995 14.98314799 30083,6950.24,96.108,573.615,570.595,0.0
56770.0,STARLINK-6342,PAYLOAD,2023-12-13 22:18:27,14.98322336,0.0002177,70.0002,263.8281,241.2574,118.8366,0.00016666,1.896e-05,0.0,0 STARLINK-6342,1 56770U 23078D   23347.92948038  .00001896  00000-0  16666-3 0  9999,2 56770  70.0002 263.8281 0002177 241.2574 118.8366 14.98322336 29845,6950.217,96.107,573.595,570.569,0.0
56770.0,STARLINK-6342,PAYLOAD,2023-12-14 04:42:59,14.9832148,0.0001891,70.0003,263.1544,275.1313,84.963,0.00016049,1.822e-05,0.0,0 STARLINK-6342,1 56770U 23078D   23348.19652499  .00001822  00000-0  16049-3 0  9996,2 56770  70.0003 263.1544 0001891 275.1313  84.9630 14.98321480 29880,6950.219,96.108,573.399,570.77,0.0
56770.0,STARLINK-6342,PAYLOAD,2023-12-14 20:44:20,14.98322459,0.0002362,70.0001,261.4701,266.8571,93.2318,0.00015145,1.714e-05,0.0,0 STARLINK-6342,1 56770U 23078D   23348.86412557  .00001714  00000-0  15145-3 0  9995,2 56770  70.0001 261.4701 0002362 266.8571  93.2318 14.98322459 30246,6950.216,96.107,573.723,570.44,0.0
56770.0,STARLINK-6342,PAYLOAD,2023-12-14 22:20:28,14.98322594,0.0002228,69.9996,261.3017,255.9491,104.142,0.00014395,1.625e-05,0.0,0 STARLINK-6342,1 56770U 23078D   23348.93088541  .00001625  00000-0  14395-3 0  9992,2 56770  69.9996 261.3017 0002228 255.9491 104.1420 14.98322594 29992,6950.216,96.107,573.629,570.532,0.0
